{
  "type": "FeatureCollection",
  "features": [
    {
      "type": "Feature",
      "properties": {
        "norad_id": 43602,
        "name": "BEIDOU-3 M12 (C26)",
        "group": "beidou",
        "lat": -29.48998030113144,
        "lon": 31.453448010145248,
        "alt_km": 21557.640129537333,
        "timestamp": "2025-12-13T10:41:26.031182+00:00",
        "meta_object_name": "BEIDOU-3 M12 (C26)",
        "meta_object_id": "2018-067A",
        "meta_epoch": "2025-12-11T12:15:06.004224",
        "meta_mean_motion": 1.86227612,
        "meta_eccentricity": 0.00091491,
        "meta_inclination": 54.1831,
        "meta_ra_of_asc_node": 187.4051,
        "meta_arg_of_pericenter": 41.0073,
        "meta_mean_anomaly": 319.1184,
        "meta_ephemeris_type": 0,
        "meta_classification_type": "U",
        "meta_norad_cat_id": 43602,
        "meta_element_set_no": 999,
        "meta_rev_at_epoch": 4962,
        "meta_bstar": 0,
        "meta_mean_motion_dot": 7.1e-07,
        "meta_mean_motion_ddot": 0,
        "tle_line1": "1 43602U 18067A   25345.51048616  .00000071  00000+0  00000+0 0  9993",
        "tle_line2": "2 43602  54.1831 187.4051 0009149  41.0073 319.1184  1.86227612 49626"
      },
      "geometry": {
        "type": "Point",
        "coordinates": [
          31.453448010145248,
          -29.48998030113144
        ]
      }
    },
    {
      "type": "Feature",
      "properties": {
        "norad_id": 43603,
        "name": "BEIDOU-3 M11 (C25)",
        "group": "beidou",
        "lat": 40.1984564850611,
        "lon": -30.307697928683343,
        "alt_km": 21523.62466325433,
        "timestamp": "2025-12-13T10:41:26.031193+00:00",
        "meta_object_name": "BEIDOU-3 M11 (C25)",
        "meta_object_id": "2018-067B",
        "meta_epoch": "2025-12-12T04:22:00.818688",
        "meta_mean_motion": 1.86227161,
        "meta_eccentricity": 0.00055795,
        "meta_inclination": 54.1804,
        "meta_ra_of_asc_node": 187.3462,
        "meta_arg_of_pericenter": 36.7716,
        "meta_mean_anomaly": 323.3248,
        "meta_ephemeris_type": 0,
        "meta_classification_type": "U",
        "meta_norad_cat_id": 43603,
        "meta_element_set_no": 999,
        "meta_rev_at_epoch": 4966,
        "meta_bstar": 0,
        "meta_mean_motion_dot": 8e-07,
        "meta_mean_motion_ddot": 0,
        "tle_line1": "1 43603U 18067B   25346.18195392  .00000080  00000+0  00000+0 0  9992",
        "tle_line2": "2 43603  54.1804 187.3462 0005579  36.7716 323.3248  1.86227161 49661"
      },
      "geometry": {
        "type": "Point",
        "coordinates": [
          -30.307697928683343,
          40.1984564850611
        ]
      }
    },
    {
      "type": "Feature",
      "properties": {
        "norad_id": 43622,
        "name": "BEIDOU-3 M13 (C32)",
        "group": "beidou",
        "lat": 19.652702934505644,
        "lon": -124.88026860548666,
        "alt_km": 21538.818856135003,
        "timestamp": "2025-12-13T10:41:26.031205+00:00",
        "meta_object_name": "BEIDOU-3 M13 (C32)",
        "meta_object_id": "2018-072A",
        "meta_epoch": "2025-12-12T16:12:36.163584",
        "meta_mean_motion": 1.8623072,
        "meta_eccentricity": 0.0005872,
        "meta_inclination": 56.4592,
        "meta_ra_of_asc_node": 68.8222,
        "meta_arg_of_pericenter": 298.9421,
        "meta_mean_anomaly": 61.0187,
        "meta_ephemeris_type": 0,
        "meta_classification_type": "U",
        "meta_norad_cat_id": 43622,
        "meta_element_set_no": 999,
        "meta_rev_at_epoch": 4918,
        "meta_bstar": 0,
        "meta_mean_motion_dot": -7.4e-07,
        "meta_mean_motion_ddot": 0,
        "tle_line1": "1 43622U 18072A   25346.67541856 -.00000074  00000+0  00000+0 0  9997",
        "tle_line2": "2 43622  56.4592  68.8222 0005872 298.9421  61.0187  1.86230720 49189"
      },
      "geometry": {
        "type": "Point",
        "coordinates": [
          -124.88026860548666,
          19.652702934505644
        ]
      }
    },
    {
      "type": "Feature",
      "properties": {
        "norad_id": 43623,
        "name": "BEIDOU-3 M14 (C33)",
        "group": "beidou",
        "lat": -49.83542460758945,
        "lon": -59.5004744371078,
        "alt_km": 21533.374901696694,
        "timestamp": "2025-12-13T10:41:26.031217+00:00",
        "meta_object_name": "BEIDOU-3 M14 (C33)",
        "meta_object_id": "2018-072B",
        "meta_epoch": "2025-12-12T00:05:39.634080",
        "meta_mean_motion": 1.86230719,
        "meta_eccentricity": 0.00032787,
        "meta_inclination": 56.4604,
        "meta_ra_of_asc_node": 68.8385,
        "meta_arg_of_pericenter": 334.6213,
        "meta_mean_anomaly": 25.3832,
        "meta_ephemeris_type": 0,
        "meta_classification_type": "U",
        "meta_norad_cat_id": 43623,
        "meta_element_set_no": 999,
        "meta_rev_at_epoch": 4916,
        "meta_bstar": 0,
        "meta_mean_motion_dot": -6.8e-07,
        "meta_mean_motion_ddot": 0,
        "tle_line1": "1 43623U 18072B   25346.00393095 -.00000068  00000+0  00000+0 0  9998",
        "tle_line2": "2 43623  56.4604  68.8385 0003278 334.6213  25.3832  1.86230719 49165"
      },
      "geometry": {
        "type": "Point",
        "coordinates": [
          -59.5004744371078,
          -49.83542460758945
        ]
      }
    },
    {
      "type": "Feature",
      "properties": {
        "norad_id": 43647,
        "name": "BEIDOU-3 M16 (C35)",
        "group": "beidou",
        "lat": 30.871085366052142,
        "lon": 100.9998553430215,
        "alt_km": 21534.59125555266,
        "timestamp": "2025-12-13T10:41:26.031228+00:00",
        "meta_object_name": "BEIDOU-3 M16 (C35)",
        "meta_object_id": "2018-078A",
        "meta_epoch": "2025-12-12T03:52:56.248896",
        "meta_mean_motion": 1.86232291,
        "meta_eccentricity": 0.00071745,
        "meta_inclination": 54.2625,
        "meta_ra_of_asc_node": 306.5413,
        "meta_arg_of_pericenter": 19.216,
        "meta_mean_anomaly": 340.802,
        "meta_ephemeris_type": 0,
        "meta_classification_type": "U",
        "meta_norad_cat_id": 43647,
        "meta_element_set_no": 999,
        "meta_rev_at_epoch": 4867,
        "meta_bstar": 0,
        "meta_mean_motion_dot": -9.2e-07,
        "meta_mean_motion_ddot": 0,
        "tle_line1": "1 43647U 18078A   25346.16176214 -.00000092  00000+0  00000+0 0  9996",
        "tle_line2": "2 43647  54.2625 306.5413 0007174  19.2160 340.8020  1.86232291 48676"
      },
      "geometry": {
        "type": "Point",
        "coordinates": [
          100.9998553430215,
          30.871085366052142
        ]
      }
    },
    {
      "type": "Feature",
      "properties": {
        "norad_id": 43648,
        "name": "BEIDOU-3 M15 (C34)",
        "group": "beidou",
        "lat": 41.08042665499775,
        "lon": -14.663728997628922,
        "alt_km": 21514.768714385453,
        "timestamp": "2025-12-13T10:41:26.031239+00:00",
        "meta_object_name": "BEIDOU-3 M15 (C34)",
        "meta_object_id": "2018-078B",
        "meta_epoch": "2025-12-12T19:52:13.655712",
        "meta_mean_motion": 1.86231884,
        "meta_eccentricity": 0.00036384,
        "meta_inclination": 54.2577,
        "meta_ra_of_asc_node": 306.5185,
        "meta_arg_of_pericenter": 18.0764,
        "meta_mean_anomaly": 341.9269,
        "meta_ephemeris_type": 0,
        "meta_classification_type": "U",
        "meta_norad_cat_id": 43648,
        "meta_element_set_no": 999,
        "meta_rev_at_epoch": 4870,
        "meta_bstar": 0,
        "meta_mean_motion_dot": -9.5e-07,
        "meta_mean_motion_ddot": 0,
        "tle_line1": "1 43648U 18078B   25346.82793583 -.00000095  00000+0  00000+0 0  9997",
        "tle_line2": "2 43648  54.2577 306.5185 0003638  18.0764 341.9269  1.86231884 48705"
      },
      "geometry": {
        "type": "Point",
        "coordinates": [
          -14.663728997628922,
          41.08042665499775
        ]
      }
    },
    {
      "type": "Feature",
      "properties": {
        "norad_id": 43683,
        "name": "BEIDOU-3 G1 (C59)",
        "group": "beidou",
        "lat": -2.5572213502089998,
        "lon": 22.796836768665887,
        "alt_km": 35792.37535358339,
        "timestamp": "2025-12-13T10:41:26.031250+00:00",
        "meta_object_name": "BEIDOU-3 G1 (C59)",
        "meta_object_id": "2018-085A",
        "meta_epoch": "2025-12-13T00:25:09.166080",
        "meta_mean_motion": 1.0027068,
        "meta_eccentricity": 0.00016999,
        "meta_inclination": 2.6087,
        "meta_ra_of_asc_node": 102.9683,
        "meta_arg_of_pericenter": 61.5479,
        "meta_mean_anomaly": 63.7963,
        "meta_ephemeris_type": 0,
        "meta_classification_type": "U",
        "meta_norad_cat_id": 43683,
        "meta_element_set_no": 999,
        "meta_rev_at_epoch": 2619,
        "meta_bstar": 0,
        "meta_mean_motion_dot": -2.64e-06,
        "meta_mean_motion_ddot": 0,
        "tle_line1": "1 43683U 18085A   25347.01746720 -.00000264  00000+0  00000+0 0  9995",
        "tle_line2": "2 43683   2.6087 102.9683 0001699  61.5479  63.7963  1.00270680 26191"
      },
      "geometry": {
        "type": "Point",
        "coordinates": [
          22.796836768665887,
          -2.5572213502089998
        ]
      }
    }
  ]
}